STRIX-3                 
1 59224U 24047A   24102.53782661  .00006490  00000+0  51920-3 0  9994
2 59224  97.5681  71.0922 0016749 261.1053  98.8275 15.00419863  4488
ELECTRON KICK STAGE R/B 
1 59225U 24047B   24096.68891877  .00007893  00000+0  61811-3 0  9991
2 59225  97.5614  65.4215 0014374 271.0536 262.9272 15.01197420  3602
2024-048A               
1 59228U 24048A   24086.00000000 -.00001539  00000+0  00000+0 0  9991
2 59228  27.6104   4.8377 9384788 141.5911 234.7528  0.21026503   387
STARLINK-31304          
1 59231U 24049A   24102.43987683 -.00002312  00000+0 -48117-4 0  9990
2 59231  42.9994 158.2116 0001340 289.5025  70.5686 15.40690719  5326
STARLINK-31305          
1 59232U 24049B   24102.46773521 -.00303120  00000+0 -58432-2 0  9998
2 59232  42.9998 157.5498 0001584 309.5225  50.5494 15.48159514  5338
STARLINK-31459          
1 59233U 24049C   24102.25001157 -.02181501  00000+0 -51302-1 0  9992
2 59233  42.9992 158.8414 0000897 266.5639 311.3397 15.44964096  5304
STARLINK-31438          
1 59234U 24049D   24102.49349314  .00015808  00000+0  38458-3 0  9990
2 59234  42.9986 157.7516 0000984 280.9110  79.1636 15.40726247  5338
STARLINK-31467          
1 59235U 24049E   24102.58334491  .00104425  00000+0  24798-2 0  9996
2 59235  42.9993 156.9340 0001031 290.6377 332.7676 15.40617335  5429
STARLINK-31444          
1 59236U 24049F   24102.25001157 -.00027026  00000+0 -48394-3 0  9993
2 59236  42.9990 156.5524 0001741 265.3773 156.4909 15.48933482  5325
STARLINK-31505          
1 59237U 24049G   24102.17385070 -.00004371  00000+0 -97486-4 0  9999
2 59237  43.0016 159.6532 0001243 300.1507  59.9226 15.40681681  5287
STARLINK-31494          
1 59238U 24049H   24102.25001157  .00074931  00000+0  17856-2 0  9998
2 59238  42.9990 159.0336 0001260 260.6923 236.9846 15.40664035  5250
STARLINK-31303          
1 59239U 24049J   24102.58334491  .00113785  00000+0  26968-2 0  9990
2 59239  42.9993 156.3118 0001228 279.3409 232.8717 15.40631906  5367
STARLINK-31408          
1 59240U 24049K   24102.33647545  .00002567  00000+0  52451-4 0  9995
2 59240  42.9991 158.2843 0001088 264.7675  95.3060 15.48910454  5314
STARLINK-31427          
1 59241U 24049L   24102.25001157  .00002798  00000+0  74217-4 0  9990
2 59241  42.9994 157.6815 0001649 287.6855  37.3971 15.40702970  5374
STARLINK-31423          
1 59242U 24049M   24102.25001157 -.00052348  00000+0 -94599-3 0  9993
2 59242  42.9991 158.7780 0001217 273.7901 329.3170 15.48937992  5360
STARLINK-31433          
1 59243U 24049N   24102.58334491  .00040138  00000+0  96327-3 0  9993
2 59243  42.9995 156.9620 0001963 271.6515 339.2700 15.40693175  5356
STARLINK-31285          
1 59244U 24049P   24102.48678377  .00002715  00000+0  72230-4 0  9994
2 59244  42.9994 157.6958 0001340 266.7590  93.3113 15.40697222  5336
STARLINK-31268          
1 59245U 24049Q   24102.25001157  .00066588  00000+0  15896-2 0  9997
2 59245  42.9992 158.9704 0001384 306.2313 216.3157 15.40658510  5308
STARLINK-31284          
1 59246U 24049R   24102.25001157 -.00081473  00000+0 -19607-2 0  9994
2 59246  42.9994 158.9110 0001079 293.1903 254.2516 15.40750842  5303
STARLINK-31424          
1 59247U 24049S   24102.48903192  .00005406  00000+0  13657-3 0  9990
2 59247  42.9989 157.7144 0000287 208.1748 151.9093 15.40702220  5338
STARLINK-31405          
1 59248U 24049T   24102.46235378 -.00032695  00000+0 -58809-3 0  9993
2 59248  42.9984 157.5065 0002175   7.6979 352.3914 15.48886690  5331
STARLINK-31426          
1 59249U 24049U   24102.46200611 -.00007470  00000+0 -12918-3 0  9990
2 59249  43.0000 157.5054 0001996 272.7780  87.2852 15.48902151  5343
STARLINK-31407          
1 59250U 24049V   24101.52331629  .00001425  00000+0  41373-4 0  9992
2 59250  42.9996 163.3680 0001413 278.9305  81.1391 15.40693215  5196
STARLINK-31418          
1 59251U 24049W   24102.58334491 -.00021315  00000+0 -38011-3 0  9996
2 59251  42.9991 156.7851 0000669 307.3384  15.8228 15.48935407  5478
STARLINK-31393          
1 59252U 24049X   24102.25001157  .00075005  00000+0  17894-2 0  9999
2 59252  42.9992 159.0007 0001244 262.9833 247.1314 15.40629253  5369
STARLINK-31425          
1 59253U 24049Y   24102.58334491  .00140711  00000+0  33198-2 0  9998
2 59253  42.9995 157.0207 0001153 261.3883 324.6282 15.40646935  5350
STARLINK-31659          
1 59254U 24050A   24100.27875535  .00065508  00000+0  14674-2 0  9992
2 59254  53.1603 199.7831 0001472  76.1357 283.9812 15.42855877  4487
STARLINK-31629          
1 59255U 24050B   24102.46813556 -.00682779  00000+0 -14230-1 0  9995
2 59255  53.1587 189.2725 0004908  15.4477 344.6681 15.47524405  4823
STARLINK-31652          
1 59256U 24050C   24102.58334491 -.02159422  00000+0 -48916-1 0  9999
2 59256  53.1586 188.7231 0001261  78.7083 203.5997 15.46221694  4841
STARLINK-31655          
1 59257U 24050D   24102.52686335  .00142900  00000+0  10143-2 0  9992
2 59257  53.1596 187.4851 0001937  34.3743 325.7401 15.72990612  4858
STARLINK-31637          
1 59258U 24050E   24102.58334491  .00139729  00000+0  30971-2 0  9998
2 59258  53.1585 188.8164 0001045  42.9323 192.1483 15.42781805  4842
STARLINK-31506          
1 59259U 24050F   24100.07938816 -.01069868  00000+0 -23610-1 0  9992
2 59259  53.1606 200.6705 0000323  96.2701 263.8344 15.46261928  3294
STARLINK-31288          
1 59260U 24050G   24102.53109732  .00098729  00000+0  17977-2 0  9999
2 59260  53.1585 188.9532 0002643  39.5672 320.5529 15.48716186  4832
STARLINK-31639          
1 59261U 24050H   24101.24097324 -.00434594  00000+0 -97007-2 0  9998
2 59261  53.1596 195.1221 0001109  45.7107 314.3990 15.44646138  4634
STARLINK-31673          
1 59262U 24050J   24101.94917088  .00123411  00000+0  22341-2 0  9994
2 59262  53.1585 191.7208 0001682  54.3128 305.8037 15.48767332  4748
STARLINK-31598          
1 59263U 24050K   24100.08334491 -.00085585  00000+0 -15976-2 0  9997
2 59263  53.1602 199.7889 0000828 137.5568 310.6919 15.48406664  4500
STARLINK-31645          
1 59264U 24050L   24102.52950716 -.00059154  00000+0 -10947-2 0  9999
2 59264  53.1583 188.9425 0000814  71.6585 288.4512 15.48490709  4837
STARLINK-31646          
1 59265U 24050M   24102.52914828  .00100812  00000+0  18402-2 0  9994
2 59265  53.1583 188.9417 0001282  60.0085 300.1050 15.48636406  4831
STARLINK-31648          
1 59266U 24050N   24102.52909170 -.00181876  00000+0 -35067-2 0  9996
2 59266  53.1589 188.9382 0000824  85.5922 274.5181 15.47911236  4837
STARLINK-31579          
1 59267U 24050P   24102.52848772  .00103181  00000+0  18839-2 0  9996
2 59267  53.1585 188.9386 0001136  92.5463 267.5676 15.48617906  4832
STARLINK-31627          
1 59268U 24050Q   24102.52804717  .00134220  00000+0  24321-2 0  9999
2 59268  53.1586 188.9335 0000982  69.3933 290.7181 15.48691996  4830
STARLINK-31609          
1 59269U 24050R   24102.52770267  .00104882  00000+0  19102-2 0  9994
2 59269  53.1581 188.9321 0001647  65.5009 294.6171 15.48680507  4830
STARLINK-31616          
1 59270U 24050S   24102.52731207  .00104339  00000+0  18981-2 0  9998
2 59270  53.1596 188.9308 0001955  39.7665 320.3487 15.48716283  4834
STARLINK-31630          
1 59271U 24050T   24102.52655435 -.00031773  00000+0 -57966-3 0  9997
2 59271  53.1584 188.9225 0001052  72.2598 287.8525 15.48610526  4838
STARLINK-31623          
1 59272U 24050U   24102.54138917  .00014034  00000+0  32417-3 0  9994
2 59272  53.1582 189.0176 0001497  80.5081 279.6094 15.42820791  4837
STARLINK-31595          
1 59273U 24050V   24102.50559212 -.00406969  00000+0 -80659-2 0  9990
2 59273  53.1604 188.7891 0000702 122.3829 237.7247 15.47979544  4826
2024-052A               
1 59280U 24052A   24102.47712129 -.00000066  00000+0  12011-3 0  9999
2 59280  50.0988 153.1966 0005720 277.8550  82.1676 13.32995913  2844
2024-052B               
1 59281U 24052B   24102.47243040 -.00000073  00000+0  10699-3 0  9999
2 59281  50.0966 153.1737 0005216 291.0025  69.0292 13.33292183  2840
2024-052C               
1 59282U 24052C   24102.46744868 -.00000068  00000+0  11603-3 0  9993
2 59282  50.0989 153.1500 0005451 307.9510  52.0872 13.33607055  2845
2024-052D               
1 59283U 24052D   24102.51282869  .00014186  00000+0  50442-3 0  9997
2 59283  50.0999 124.3418 0007409 352.8995   7.1857 15.29170508  3262
2024-052E               
1 59284U 24052E   24102.50774427  .00014113  00000+0  49609-3 0  9996
2 59284  50.1014 124.3091 0008716   0.9554 359.1420 15.29542811  3258
2024-052F               
1 59285U 24052F   24102.50286773  .00014026  00000+0  48768-3 0  9997
2 59285  50.0995 124.2777 0009696   7.8724 352.2386 15.29895464  3259
DRAGON CRS-30           
1 59287U 24054A   24101.53547081  .00013460  00000+0  24286-3 0  9995
2 59287  51.6371 290.8381 0004662  54.0709 306.0712 15.50061365448052
SOYUZ-MS 25             
1 59294U 24055A   24101.53547081  .00013460  00000+0  24286-3 0  9994
2 59294  51.6371 290.8381 0004662  54.0709 306.0712 15.50061365448050
STARLINK-31463          
1 59296U 24056A   24102.58334491 -.00080822  00000+0 -55677-3 0  9998
2 59296  43.0003 253.1186 0002200 286.1344 141.8481 15.73821857  4021
STARLINK-31487          
1 59297U 24056B   24102.50001157 -.00091524  00000+0 -63203-3 0  9996
2 59297  43.0004 253.6111 0001654 311.3392   7.9743 15.73812873  4113
STARLINK-31386          
1 59298U 24056C   24101.91667824  .00031877  00000+0  22145-3 0  9993
2 59298  43.0009 257.1493 0002029 260.1235 348.0893 15.73792007  3676
STARLINK-31409          
1 59299U 24056D   24102.25001157 -.00117175  00000+0 -81044-3 0  9994
2 59299  43.0007 255.1183 0001842 296.5870  46.5457 15.73871938  4071
STARLINK-31489          
1 59300U 24056E   24102.50001157 -.00091187  00000+0 -62965-3 0  9990
2 59300  43.0004 253.6016 0001741 276.4163  46.8918 15.73813056  4015
STARLINK-31502          
1 59301U 24056F   24102.50001157  .00256433  00000+0  17162-2 0  9994
2 59301  43.0005 253.5961 0002000 271.4523  53.7191 15.73737878  3745
